1 39615U 14010D   15232.01313373  .00948239  34794-6  16858-2 0  9992
2 39615 048.6076 010.8726 6469721 142.6734 287.7221 03.46436537 12680
1 39615U 14010D   15234.30902303  .00675959  19479-7  11898-2 0  9992
2 39615 048.6100 009.7682 6447018 143.6624 285.4533 03.49776374 12769
1 39615U 14010D   15234.87980596 +.00654709 +28103-7 +11492-2 0  9998
2 39615 048.6087 009.4939 6442127 143.9084 284.8953 03.50498176012733
1 39615U 14010D   15234.87981205 +.00693902 +27814-7 +11858-2 0  9998
2 39615 048.6098 009.4941 6442344 143.9070 284.9016 03.50499984012788
1 39615U 14010D   15236.01759487 +.00687921 +17531-6 +11974-2 0  9998
2 39615 048.6103 008.9408 6431492 144.4049 283.7485 03.52072449012828
1 39615U 14010D   15237.43238038  .00735570  55057-6  11853-2 0  9994
2 39615 048.6104 008.2491 6418082 145.0209 282.3074 03.54146126 12879
1 39615U 14010D   15237.99599187  .00799858  72454-6  13547-2 0  9991
2 39615 048.6119 007.9746 6411923 145.2724 281.7022 03.54990664 12897
1 39615U 14010D   15238.83864385  .00842032  96561-6  14636-2 0  9998
2 39615 048.6116 007.5568 6401841 145.6460 280.7818 03.56446208 12929
1 39615U 14010D   15239.11879190 +.00917061 +10327-5 +15606-2 0  9998
2 39615 048.6116 007.4205 6398928 145.7679 280.4858 03.56903556012936
1 39615U 14010D   15239.95677939  .00987025  11730-5  17215-2 0  9991
2 39615 048.6135 007.0008 6387881 146.1461 279.5292 03.58506010 12964
1 39615U 14010D   15239.95678104  .01155592  11716-5  19471-2 0  9993
2 39615 048.6133 007.0034 6387946 146.1464 279.5296 03.58540346 12960
1 39615U 14010D   15241.06737932  .01072271  11813-5  17521-2 0  9997
2 39615 048.6122 006.4470 6371125 146.6432 278.2213 03.61072783 13007
1 39615U 14010D   15243.59789109  .00829606  54687-6  13842-2 0  9990
2 39615  48.6156   5.1658 6338255 147.7902 351.1557  3.65932724 13094
1 39615U 14010D   15245.50044591 +.00768963 +14436-7 +12324-2 0  9993
2 39615 048.6161 004.1784 6319164 148.6711 347.5155 03.68833864013164
1 39615U 14010D   15248.40902048  .00648411  98443-7  10833-2 0  9993
2 39615  48.6158   2.6748 6293541 150.0191 269.5849  3.72614490 13263
1 39615U 14010D   15249.47942957  .00690079  36033-6  11334-2 0  9994
2 39615  48.6159   2.1139 6283766 150.5252 268.2805  3.74103883 13308
1 39615U 14010D   15249.74633663  .00705968  43272-6  11989-2 0  9998
2 39615  48.6175   1.9712 6280837 150.6518 267.9449  3.74499633 13314
1 39615U 14010D   15250.27938951  .00733390  57860-6  12254-2 0  9990
2 39615  48.6178   1.6915 6276033 150.9039 267.2906  3.75242872 13338
1 39615U 14010D   15250.81132613  .00770788  71950-6  12810-2 0  9997
2 39615  48.6162   1.4122 6270719 151.1529 266.6323  3.76048920 13358
1 39615U 14010D   15251.34210230  .00841949  84868-6  14220-2 0  9995
2 39615  48.6181   1.1291 6264949 151.4062 265.9541  3.76895622 13371
1 39615U 14010D   15252.13606438  .00820471  10114-5  13442-2 0  9996
2 39615  48.6177   0.7085 6257121 151.7810 264.9555  3.78114913 13407
1 39615U 14010D   15253.45332477  .00836252  11704-5  13795-2 0  9992
2 39615  48.6165   0.0048 6242378 152.4155 263.2252  3.80329090 13452
1 39615U 14010D   15253.97796835  .00914717  11901-5  15259-2 0  9990
2 39615  48.6177 359.7210 6235697 152.6698 262.5144  3.81322911 13470
1 39615U 14010D   15254.50141302  .00828967  11870-5  13849-2 0  9992
2 39615  48.6173 359.4390 6230244 152.9199 261.8290  3.82145169 13499
1 39615U 14010D   15254.50141896  .00915998  11862-5  14761-2 0  9996
2 39615  48.6168 359.4405 6230488 152.9184 261.8361  3.82156518 13493
1 39615U 14010D   15255.02364696  .00827632  11593-5  13214-2 0  9999
2 39615  48.6163 359.1581 6224824 153.1685 261.1445  3.83025798 13511
1 39615U 14010D   15255.28434109  .00780891  11375-5  12452-2 0  9990
2 39615  48.6165 359.0170 6222298 153.2940 260.8009  3.83409818 13526
1 39615U 14010D   15255.54476426  .00802028  11099-5  13221-2 0  9992
2 39615  48.6168 358.8753 6219283 153.4223 260.4425  3.83821319 13532
1 39615U 14010D   15255.80496339  .00800642  10773-5  12766-2 0  9997
2 39615  48.6164 358.7340 6217370 153.5452 260.1128  3.84155895 13547
1 39615U 14010D   15256.32457655  .00681457  99930-6  11220-2 0  9991
2 39615  48.6173 358.4499 6212325 153.7991 259.4134  3.84876953 13569
1 39615U 14010D   15256.84324853  .00672785  90398-6  10954-2 0  9997
2 39615  48.6175 358.1673 6207785 154.0519 258.7212  3.85580118 13583
1 39615U 14010D   15256.84325394  .00693486  90376-6  10987-2 0  9991
2 39615  48.6171 358.1675 6208067 154.0501 258.7299  3.85574337 13587
1 39615U 14010D   15257.36099070  .00643163  79575-6  10478-2 0  9998
2 39615  48.6181 357.8833 6203319 154.3049 258.0268  3.86256591 13607
1 39615U 14010D   15257.87777006  .00690444  67763-6  10724-2 0  9990
2 39615  48.6174 357.6007 6198810 154.5601 257.3238  3.87005677 13624
1 39615U 14010D   15258.39357700  .00651021  55548-6  10339-2 0  9991
2 39615  48.6172 357.3175 6193975 154.8138 256.6171  3.87709456 13646
1 39615U 14010D   15259.16558492  .00654667  37366-6  10474-2 0  9995
2 39615  48.6177 356.8912 6187214 155.1966 255.5540  3.88726666 13670
1 39615U 14010D   15259.42246115  .00644750  31638-6  10141-2 0  9999
2 39615  48.6167 356.7504 6185069 155.3228 255.2036  3.89076100 13684
1 39615U 14010D   15259.93557775  .00574380  21137-6  91939-3 0  9991
2 39615  48.6173 356.4658 6180877 155.5766 254.4986  3.89689795 13707
1 39615U 14010D   15260.19183909  .00584453  16449-6  90615-3 0  9997
2 39615  48.6161 356.3249 6179080 155.7029 254.1512  3.90006962 13711
1 39615U 14010D   15260.70373766  .00603007  86384-7  95557-3 0  9999
2 39615  48.6168 356.0407 6174798 155.9560 253.4438  3.90628793 13737
1 39615U 14010D   15260.95938955  .00630360  56223-7  97195-3 0  9994
2 39615  48.6164 355.8993 6173047 156.0818 253.0965  3.90933117 13745
1 39615U 14010D   15261.21483129  .00595755  33483-7  94130-3 0  9999
2 39615  48.6168 355.7571 6170830 156.2095 252.7374  3.91237264 13758
1 39615U 14010D   15262.48914760  .00569863  35332-7  89800-3 0  9993
2 39615  48.6168 355.0471 6161205 156.8437 250.9653  3.92708584 13807
1 39615U 14010D   15262.99757809  .00534783  93905-7  84475-3 0  9994
2 39615  48.6173 354.7622 6157622 157.0974 250.2560  3.93252217 13824
1 39615U 14010D   15262.99758470  .00551604  93768-7  84911-3 0  9992
2 39615  48.6170 354.7626 6157929 157.0962 250.2635  3.93241025 13820
1 39615U 14010D   15264.26542967  .00616810  36353-6  97390-3 0  9998
2 39615  48.6176 354.0504 6147795 157.7349 248.4531  3.94754099 13870
1 39615U 14010D   15264.77117221  .00577094  50535-6  91614-3 0  9996
2 39615  48.6178 353.7653 6143831 157.9894 247.7284  3.95352895 13895
1 39615U 14010D   15265.52849223  .00553857  72533-6  87804-3 0  9993
2 39615  48.6181 353.3371 6138694 158.3731 246.6421  3.96140945 13925
1 39615U 14010D   15266.03249052  .00615676  86059-6  94832-3 0  9999
2 39615  48.6184 353.0519 6135130 158.6272 245.9169  3.96726402 13945
1 39615U 14010D   15266.28420620  .00584587  92152-6  89727-3 0  9992
2 39615  48.6187 352.9090 6133346 158.7556 245.5496  3.97004625 13950
1 39615U 14010D   15266.53574062  .00580604  97569-6  91567-3 0  9998
2 39615  48.6188 352.7661 6131210 158.8846 245.1756  3.97294054 13967
1 39615U 14010D   15267.03827681  .00551335  10605-5  87121-3 0  9997
2 39615  48.6196 352.4798 6127542 159.1397 244.4404  3.97853447 13983
1 39615U 14010D   15267.03828231  .00609520  10600-5  93155-3 0  9998
2 39615  48.6194 352.4799 6127870 159.1395 244.4453  3.97849450 13987
1 39615U 14010D   15267.54009245  .00575315  11071-5  89853-3 0  9997
2 39615  48.6197 352.1938 6123875 159.3977 243.6946  3.98431650 14003
1 39615U 14010D   15267.79072763  .00611616  11144-5  92402-3 0  9999
2 39615  48.6200 352.0503 6122213 159.5260 243.3247  3.98732780 14017
1 39615U 14010D   15268.29141126  .00628165  10970-5  96987-3 0  9990
2 39615  48.6206 351.7644 6118030 159.7839 242.5680  3.99343783 14037
1 39615U 14010D   15268.54145770  .00605426  10723-5  93070-3 0  9998
2 39615  48.6207 351.6212 6116042 159.9129 242.1900  3.99654919 14041
1 39615U 14010D   15269.04099313  .00643593  99156-6  96561-3 0  9998
2 39615  48.6213 351.3348 6112264 160.1705 241.4352  4.00268726 14066
1 39615U 14010D   15269.29046805  .00603922  93776-6  92812-3 0  9992
2 39615  48.6212 351.1918 6110133 160.2988 241.0550  4.00562174 14074
1 39615U 14010D   15269.53978047  .00549454  87595-6  84384-3 0  9997
2 39615  48.6215 351.0485 6108451 160.4274 240.6790  4.00821497 14083
1 39615U 14010D   15270.03785787  .00602407  73097-6  90322-3 0  9990
2 39615  48.6219 350.7618 6104712 160.6861 239.9165  4.01429375 14101
1 39615U 14010D   15270.28661554  .00568939  65164-6  87580-3 0  9991
2 39615  48.6219 350.6190 6102661 160.8142 239.5354  4.01707462 14113
1 39615U 14010D   15270.53520136  .00560341  56897-6  86073-3 0  9997
2 39615  48.6223 350.4756 6100859 160.9438 239.1529  4.01987355 14122
1 39615U 14010D   15271.27995210  .00505009  31681-6  78414-3 0  9992
2 39615  48.6225 350.0457 6095634 161.3299 238.0113  4.02775483 14150
1 39615U 14010D   15272.02328580  .00516345  86654-7  78925-3 0  9999
2 39615  48.6224 349.6149 6090731 161.7173 236.8660  4.03551745 14189
1 39615U 14010D   15272.27074525  .00526985  20714-7  80457-3 0  9992
2 39615  48.6226 349.4715 6089058 161.8464 236.4828  4.03810880 14193
1 39615U 14010D   15273.01220444  .00507572 -13109-6  77824-3 0  9993
2 39615  48.6229 349.0408 6084256 162.2319 235.3389  4.04544319 14226
1 39615U 14010D   15273.25905930  .00469145 -16408-6  73466-3 0  9995
2 39615  48.6230 348.8974 6082596 162.3606 234.9557  4.04770369 14237
1 39615U 14010D   15273.99875194  .00476218 -20782-6  72319-3 0  9999
2 39615  48.6234 348.4659 6078111 162.7471 233.8081  4.05505043 14268
1 39615U 14010D   15274.49116513  .00479684 -19067-6  74889-3 0  9996
2 39615  48.6240 348.1789 6074920 163.0046 233.0395  4.05958218 14280
1 39615U 14010D   15274.73715307  .00480270 -16910-6  75151-3 0  9999
2 39615  48.6237 348.0354 6073281 163.1326 232.6562  4.06207948 14294
